CCSDS_OMM_VERS = 2.0
CREATION_DATE  = 
ORIGINATOR     = 

OBJECT_NAME    = SHIJIAN-29A (SJ-29A)
OBJECT_ID      = 2025-315A
CENTER_NAME    = EARTH
REF_FRAME      = TEME
TIME_SYSTEM    = UTC
MEAN_ELEMENT_THEORY = SGP/SGP4

EPOCH          = 2026-01-19T02:18:31.807008
MEAN_MOTION    = 1.00271381
ECCENTRICITY   = .00015235
INCLINATION    = 3.0196
RA_OF_ASC_NODE = 99.0744
ARG_OF_PERICENTER = 304.4762
MEAN_ANOMALY   = 182.6002

EPHEMERIS_TYPE = 0
CLASSIFICATION_TYPE = U
NORAD_CAT_ID   = 67302
ELEMENT_SET_NO = 999
REV_AT_EPOCH   = 12
BSTAR          = 0
MEAN_MOTION_DOT = -.54E-6
MEAN_MOTION_DDOT = 0

CCSDS_OMM_VERS = 2.0
CREATION_DATE  = 
ORIGINATOR     = 

OBJECT_NAME    = CZ-7A R/B
OBJECT_ID      = 2025-315B
CENTER_NAME    = EARTH
REF_FRAME      = TEME
TIME_SYSTEM    = UTC
MEAN_ELEMENT_THEORY = SGP/SGP4

EPOCH          = 2026-01-19T02:58:15.012768
MEAN_MOTION    = 2.44357457
ECCENTRICITY   = .71879915
INCLINATION    = 19.5759
RA_OF_ASC_NODE = 92.5136
ARG_OF_PERICENTER = 193.6946
MEAN_ANOMALY   = 124.4853

EPHEMERIS_TYPE = 0
CLASSIFICATION_TYPE = U
NORAD_CAT_ID   = 67303
ELEMENT_SET_NO = 999
REV_AT_EPOCH   = 47
BSTAR          = .3616694E-2
MEAN_MOTION_DOT = .12965E-2
MEAN_MOTION_DDOT = .108637E-5

CCSDS_OMM_VERS = 2.0
CREATION_DATE  = 
ORIGINATOR     = 

OBJECT_NAME    = CSG-3
OBJECT_ID      = 2026-001A
CENTER_NAME    = EARTH
REF_FRAME      = TEME
TIME_SYSTEM    = UTC
MEAN_ELEMENT_THEORY = SGP/SGP4

EPOCH          = 2026-01-19T06:34:09.058080
MEAN_MOTION    = 14.82510045
ECCENTRICITY   = .00016197
INCLINATION    = 97.8447
RA_OF_ASC_NODE = 205.0834
ARG_OF_PERICENTER = 88.6517
MEAN_ANOMALY   = 271.4882

EPHEMERIS_TYPE = 0
CLASSIFICATION_TYPE = U
NORAD_CAT_ID   = 67304
ELEMENT_SET_NO = 999
REV_AT_EPOCH   = 240
BSTAR          = .69023984E-4
MEAN_MOTION_DOT = .502E-5
MEAN_MOTION_DDOT = 0

CCSDS_OMM_VERS = 2.0
CREATION_DATE  = 
ORIGINATOR     = 

OBJECT_NAME    = STARLINK-36490
OBJECT_ID      = 2026-002A
CENTER_NAME    = EARTH
REF_FRAME      = TEME
TIME_SYSTEM    = UTC
MEAN_ELEMENT_THEORY = SGP/SGP4

EPOCH          = 2026-01-19T06:00:02.000160
MEAN_MOTION    = 15.76470539
ECCENTRICITY   = .00016695
INCLINATION    = 42.9979
RA_OF_ASC_NODE = 249.7791
ARG_OF_PERICENTER = 275.0063
MEAN_ANOMALY   = 210.1613

EPHEMERIS_TYPE = 0
CLASSIFICATION_TYPE = U
NORAD_CAT_ID   = 67305
ELEMENT_SET_NO = 999
REV_AT_EPOCH   = 352
BSTAR          = -.93230939E-2
MEAN_MOTION_DOT = -.1359397E-1
MEAN_MOTION_DDOT = 0

CCSDS_OMM_VERS = 2.0
CREATION_DATE  = 
ORIGINATOR     = 

OBJECT_NAME    = STARLINK-36488
OBJECT_ID      = 2026-002B
CENTER_NAME    = EARTH
REF_FRAME      = TEME
TIME_SYSTEM    = UTC
MEAN_ELEMENT_THEORY = SGP/SGP4

EPOCH          = 2026-01-19T06:00:02.000160
MEAN_MOTION    = 15.76449235
ECCENTRICITY   = .0001816
INCLINATION    = 42.9982
RA_OF_ASC_NODE = 249.7739
ARG_OF_PERICENTER = 282.8382
MEAN_ANOMALY   = 204.3019

EPHEMERIS_TYPE = 0
CLASSIFICATION_TYPE = U
NORAD_CAT_ID   = 67306
ELEMENT_SET_NO = 999
REV_AT_EPOCH   = 347
BSTAR          = -.9579583E-2
MEAN_MOTION_DOT = -.1391538E-1
MEAN_MOTION_DDOT = 0

CCSDS_OMM_VERS = 2.0
CREATION_DATE  = 
ORIGINATOR     = 

OBJECT_NAME    = STARLINK-36481
OBJECT_ID      = 2026-002C
CENTER_NAME    = EARTH
REF_FRAME      = TEME
TIME_SYSTEM    = UTC
MEAN_ELEMENT_THEORY = SGP/SGP4

EPOCH          = 2026-01-19T06:00:02.000160
MEAN_MOTION    = 15.76259224
ECCENTRICITY   = .00016863
INCLINATION    = 42.9984
RA_OF_ASC_NODE = 249.7637
ARG_OF_PERICENTER = 279.0817
MEAN_ANOMALY   = 212.1644

EPHEMERIS_TYPE = 0
CLASSIFICATION_TYPE = U
NORAD_CAT_ID   = 67307
ELEMENT_SET_NO = 999
REV_AT_EPOCH   = 347
BSTAR          = -.9354598E-2
MEAN_MOTION_DOT = -.1352067E-1
MEAN_MOTION_DDOT = 0

CCSDS_OMM_VERS = 2.0
CREATION_DATE  = 
ORIGINATOR     = 

OBJECT_NAME    = STARLINK-36449
OBJECT_ID      = 2026-002D
CENTER_NAME    = EARTH
REF_FRAME      = TEME
TIME_SYSTEM    = UTC
MEAN_ELEMENT_THEORY = SGP/SGP4

EPOCH          = 2026-01-19T06:00:02.000160
MEAN_MOTION    = 15.76214941
ECCENTRICITY   = .00014596
INCLINATION    = 42.9981
RA_OF_ASC_NODE = 249.7585
ARG_OF_PERICENTER = 269.7757
MEAN_ANOMALY   = 223.4796

EPHEMERIS_TYPE = 0
CLASSIFICATION_TYPE = U
NORAD_CAT_ID   = 67308
ELEMENT_SET_NO = 999
REV_AT_EPOCH   = 352
BSTAR          = -.96619328E-2
MEAN_MOTION_DOT = -.1388962E-1
MEAN_MOTION_DDOT = 0

CCSDS_OMM_VERS = 2.0
CREATION_DATE  = 
ORIGINATOR     = 

OBJECT_NAME    = STARLINK-36482
OBJECT_ID      = 2026-002E
CENTER_NAME    = EARTH
REF_FRAME      = TEME
TIME_SYSTEM    = UTC
MEAN_ELEMENT_THEORY = SGP/SGP4

EPOCH          = 2026-01-19T06:00:02.000160
MEAN_MOTION    = 15.75616199
ECCENTRICITY   = .00017652
INCLINATION    = 42.9984
RA_OF_ASC_NODE = 249.7342
ARG_OF_PERICENTER = 284.7835
MEAN_ANOMALY   = 218.5457

EPHEMERIS_TYPE = 0
CLASSIFICATION_TYPE = U
NORAD_CAT_ID   = 67309
ELEMENT_SET_NO = 999
REV_AT_EPOCH   = 347
BSTAR          = -.556805E-2
MEAN_MOTION_DOT = -.79923E-2
MEAN_MOTION_DDOT = 0

CCSDS_OMM_VERS = 2.0
CREATION_DATE  = 
ORIGINATOR     = 

OBJECT_NAME    = STARLINK-36491
OBJECT_ID      = 2026-002F
CENTER_NAME    = EARTH
REF_FRAME      = TEME
TIME_SYSTEM    = UTC
MEAN_ELEMENT_THEORY = SGP/SGP4

EPOCH          = 2026-01-19T06:00:02.000160
MEAN_MOTION    = 15.76294508
ECCENTRICITY   = .00016715
INCLINATION    = 42.9986
RA_OF_ASC_NODE = 249.7691
ARG_OF_PERICENTER = 279.7517
MEAN_ANOMALY   = 209.5308

EPHEMERIS_TYPE = 0
CLASSIFICATION_TYPE = U
NORAD_CAT_ID   = 67310
ELEMENT_SET_NO = 999
REV_AT_EPOCH   = 347
BSTAR          = -.94232826E-2
MEAN_MOTION_DOT = -.1362818E-1
MEAN_MOTION_DDOT = 0

CCSDS_OMM_VERS = 2.0
CREATION_DATE  = 
ORIGINATOR     = 

OBJECT_NAME    = STARLINK-36495
OBJECT_ID      = 2026-002G
CENTER_NAME    = EARTH
REF_FRAME      = TEME
TIME_SYSTEM    = UTC
MEAN_ELEMENT_THEORY = SGP/SGP4

EPOCH          = 2026-01-19T06:00:02.000160
MEAN_MOTION    = 15.76071720
ECCENTRICITY   = .00019942
INCLINATION    = 42.9985
RA_OF_ASC_NODE = 249.7536
ARG_OF_PERICENTER = 281.0805
MEAN_ANOMALY   = 214.2353

EPHEMERIS_TYPE = 0
CLASSIFICATION_TYPE = U
NORAD_CAT_ID   = 67311
ELEMENT_SET_NO = 999
REV_AT_EPOCH   = 362
BSTAR          = -.90930368E-2
MEAN_MOTION_DOT = -.1308578E-1
MEAN_MOTION_DDOT = 0

CCSDS_OMM_VERS = 2.0
CREATION_DATE  = 
ORIGINATOR     = 

OBJECT_NAME    = STARLINK-36485
OBJECT_ID      = 2026-002H
CENTER_NAME    = EARTH
REF_FRAME      = TEME
TIME_SYSTEM    = UTC
MEAN_ELEMENT_THEORY = SGP/SGP4

EPOCH          = 2026-01-19T06:00:02.000160
MEAN_MOTION    = 15.75834697
ECCENTRICITY   = .00015387
INCLINATION    = 42.9988
RA_OF_ASC_NODE = 249.7486
ARG_OF_PERICENTER = 282.5775
MEAN_ANOMALY   = 214.8254

EPHEMERIS_TYPE = 0
CLASSIFICATION_TYPE = U
NORAD_CAT_ID   = 67312
ELEMENT_SET_NO = 999
REV_AT_EPOCH   = 347
BSTAR          = -.70911897E-2
MEAN_MOTION_DOT = -.1019369E-1
MEAN_MOTION_DDOT = 0

CCSDS_OMM_VERS = 2.0
CREATION_DATE  = 
ORIGINATOR     = 

OBJECT_NAME    = STARLINK-36445
OBJECT_ID      = 2026-002J
CENTER_NAME    = EARTH
REF_FRAME      = TEME
TIME_SYSTEM    = UTC
MEAN_ELEMENT_THEORY = SGP/SGP4

EPOCH          = 2026-01-19T06:00:02.000160
MEAN_MOTION    = 15.75839572
ECCENTRICITY   = .00017548
INCLINATION    = 42.9983
RA_OF_ASC_NODE = 249.7429
ARG_OF_PERICENTER = 280.8515
MEAN_ANOMALY   = 218.4665

EPHEMERIS_TYPE = 0
CLASSIFICATION_TYPE = U
NORAD_CAT_ID   = 67313
ELEMENT_SET_NO = 999
REV_AT_EPOCH   = 362
BSTAR          = -.71802713E-2
MEAN_MOTION_DOT = -.103123E-1
MEAN_MOTION_DDOT = 0

