SHIJIAN-29A (SJ-29A)    
1 67302U 25315A   26019.09620147 -.00000054  00000+0  00000+0 0  9999
2 67302   3.0196  99.0744 0001523 304.4762 182.6002  1.00271381   124
CZ-7A R/B               
1 67303U 25315B   26019.12378487  .00129650  10864-5  36167-2 0  9995
2 67303  19.5759  92.5136 7187991 193.6946 124.4853  2.44357457   472
CSG-3                   
1 67304U 26001A   26019.27371595  .00000502  00000+0  69024-4 0  9997
2 67304  97.8447 205.0834 0001619  88.6517 271.4882 14.82510045  2403
STARLINK-36490          
1 67305U 26002A   26019.25002315 -.01359397  00000+0 -93231-2 0  9995
2 67305  42.9979 249.7791 0001669 275.0063 210.1613 15.76470539  3528
STARLINK-36488          
1 67306U 26002B   26019.25002315 -.01391538  00000+0 -95796-2 0  9997
2 67306  42.9982 249.7739 0001816 282.8382 204.3019 15.76449235  3477
STARLINK-36481          
1 67307U 26002C   26019.25002315 -.01352067  00000+0 -93546-2 0  9993
2 67307  42.9984 249.7637 0001686 279.0817 212.1644 15.76259224  3471
STARLINK-36449          
1 67308U 26002D   26019.25002315 -.01388962  00000+0 -96619-2 0  9991
2 67308  42.9981 249.7585 0001459 269.7757 223.4796 15.76214941  3524
STARLINK-36482          
1 67309U 26002E   26019.25002315 -.00799230  00000+0 -55680-2 0  9998
2 67309  42.9984 249.7342 0001765 284.7835 218.5457 15.75616199  3476
STARLINK-36491          
1 67310U 26002F   26019.25002315 -.01362818  00000+0 -94233-2 0  9996
2 67310  42.9986 249.7691 0001671 279.7517 209.5308 15.76294508  3476
STARLINK-36495          
1 67311U 26002G   26019.25002315 -.01308578  00000+0 -90930-2 0  9990
2 67311  42.9985 249.7536 0001994 281.0805 214.2353 15.76071720  3627
STARLINK-36485          
1 67312U 26002H   26019.25002315 -.01019369  00000+0 -70912-2 0  9996
2 67312  42.9988 249.7486 0001538 282.5775 214.8254 15.75834697  3479
STARLINK-36445          
1 67313U 26002J   26019.25002315 -.01031230  00000+0 -71803-2 0  9998
2 67313  42.9983 249.7429 0001754 280.8515 218.4665 15.75839572  3625
